{"type": "FeatureCollection", "features": [ {"type": "Feature", "properties": {"norad_id": 30447, "name": "FENGYUN 1C DEB", "group": "fengyun-1c-debris", "lat": -14.81177961551785, "lon": 32.22401446360903, "alt_km": 751.0868268226304, "timestamp": "2025-12-18T14:52:08.302136+00:00", "meta": {"OBJECT_NAME": "FENGYUN 1C DEB", "OBJECT_ID": "1999-025AFJ", "EPOCH": "2025-12-18T04:38:08.682720", "MEAN_MOTION": 14.56704729, "ECCENTRICITY": 0.00601853, "INCLINATION": 98.9724, "RA_OF_ASC_NODE": 214.1598, "ARG_OF_PERICENTER": 14.5091, "MEAN_ANOMALY": 105.6616, "EPHEMERIS_TYPE": 0, "CLASSIFICATION_TYPE": "U", "NORAD_CAT_ID": 30447, "ELEMENT_SET_NO": 999, "REV_AT_EPOCH": 98175, "BSTAR": 0.0019321885, "MEAN_MOTION_DOT": 8.801e-05, "MEAN_MOTION_DDOT": 0}, "tle": {"line1": "1 30447U 99025AFJ 25352.19315605  .00008801  00000+0  19322-2 0  9995", "line2": "2 30447  98.9724 214.1598 0060185  14.5091 105.6616 14.56704729981759"}}, "geometry": {"type": "Point", "coordinates": [32.22401446360903, -14.81177961551785]}}, {"type": "Feature", "properties": {"norad_id": 30448, "name": "FENGYUN 1C DEB", "group": "fengyun-1c-debris", "lat": -1.5110122265088544, "lon": -95.88419612438327, "alt_km": 789.504191097405, "timestamp": "2025-12-18T14:52:08.302148+00:00", "meta": {"OBJECT_NAME": "FENGYUN 1C DEB", "OBJECT_ID": "1999-025AFK", "EPOCH": "2025-12-18T05:47:00.133728", "MEAN_MOTION": 14.35188205, "ECCENTRICITY": 0.00168636, "INCLINATION": 98.8314, "RA_OF_ASC_NODE": 83.9636, "ARG_OF_PERICENTER": 354.5802, "MEAN_ANOMALY": 32.0363, "EPHEMERIS_TYPE": 0, "CLASSIFICATION_TYPE": "U", "NORAD_CAT_ID": 30448, "ELEMENT_SET_NO": 999, "REV_AT_EPOCH": 97417, "BSTAR": 0.0015164005, "MEAN_MOTION_DOT": 4.298e-05, "MEAN_MOTION_DDOT": 0}, "tle": {"line1": "1 30448U 99025AFK 25352.24097377  .00004298  00000+0  15164-2 0  9991", "line2": "2 30448  98.8314  83.9636 0016863 354.5802  32.0363 14.35188205974172"}}, "geometry": {"type": "Point", "coordinates": [-95.88419612438327, -1.5110122265088544]}}, {"type": "Feature", "properties": {"norad_id": 30450, "name": "FENGYUN 1C DEB", "group": "fengyun-1c-debris", "lat": 32.025937814064974, "lon": -168.37622212286522, "alt_km": 585.2803014547553, "timestamp": "2025-12-18T14:52:08.302159+00:00", "meta": {"OBJECT_NAME": "FENGYUN 1C DEB", "OBJECT_ID": "1999-025AFM", "EPOCH": "2025-12-17T19:17:21.300000", "MEAN_MOTION": 14.61817431, "ECCENTRICITY": 0.01893371, "INCLINATION": 98.08, "RA_OF_ASC_NODE": 5.728, "ARG_OF_PERICENTER": 192.3273, "MEAN_ANOMALY": 345.8908, "EPHEMERIS_TYPE": 0, "CLASSIFICATION_TYPE": "U", "NORAD_CAT_ID": 30450, "ELEMENT_SET_NO": 999, "REV_AT_EPOCH": 99616, "BSTAR": 0.00042246552, "MEAN_MOTION_DOT": 2.67e-05, "MEAN_MOTION_DDOT": 0}, "tle": {"line1": "1 30450U 99025AFM 25351.80371875  .00002670  00000+0  42247-3 0  9998", "line2": "2 30450  98.0800   5.7280 0189337 192.3273 345.8908 14.61817431996163"}}, "geometry": {"type": "Point", "coordinates": [-168.37622212286522, 32.025937814064974]}}, {"type": "Feature", "properties": {"norad_id": 30452, "name": "FENGYUN 1C DEB", "group": "fengyun-1c-debris", "lat": 31.79909025954154, "lon": 126.23630322619412, "alt_km": 708.1380860357522, "timestamp": "2025-12-18T14:52:08.302170+00:00", "meta": {"OBJECT_NAME": "FENGYUN 1C DEB", "OBJECT_ID": "1999-025AFP", "EPOCH": "2025-12-17T07:52:26.485248", "MEAN_MOTION": 14.64738194, "ECCENTRICITY": 0.00494882, "INCLINATION": 99.3203, "RA_OF_ASC_NODE": 130.6192, "ARG_OF_PERICENTER": 238.851, "MEAN_ANOMALY": 187.2029, "EPHEMERIS_TYPE": 0, "CLASSIFICATION_TYPE": "U", "NORAD_CAT_ID": 30452, "ELEMENT_SET_NO": 999, "REV_AT_EPOCH": 98174, "BSTAR": 0.0031267388, "MEAN_MOTION_DOT": 0.00016936, "MEAN_MOTION_DDOT": 0}, "tle": {"line1": "1 30452U 99025AFP 25351.32808432  .00016936  00000+0  31267-2 0  9990", "line2": "2 30452  99.3203 130.6192 0049488 238.8510 187.2029 14.64738194981749"}}, "geometry": {"type": "Point", "coordinates": [126.23630322619412, 31.79909025954154]}}, {"type": "Feature", "properties": {"norad_id": 30453, "name": "FENGYUN 1C DEB", "group": "fengyun-1c-debris", "lat": -27.213884932913114, "lon": 68.93613491354812, "alt_km": 859.8016622328678, "timestamp": "2025-12-18T14:52:08.302181+00:00", "meta": {"OBJECT_NAME": "FENGYUN 1C DEB", "OBJECT_ID": "1999-025AFQ", "EPOCH": "2025-12-18T03:28:57.311328", "MEAN_MOTION": 14.24795434, "ECCENTRICITY": 0.01159665, "INCLINATION": 98.8135, "RA_OF_ASC_NODE": 63.8838, "ARG_OF_PERICENTER": 210.7425, "MEAN_ANOMALY": 208.5623, "EPHEMERIS_TYPE": 0, "CLASSIFICATION_TYPE": "U", "NORAD_CAT_ID": 30453, "ELEMENT_SET_NO": 999, "REV_AT_EPOCH": 97311, "BSTAR": 0.001238438, "MEAN_MOTION_DOT": 3.052e-05, "MEAN_MOTION_DDOT": 0}, "tle": {"line1": "1 30453U 99025AFQ 25352.14510777  .00003052  00000+0  12384-2 0  9998", "line2": "2 30453  98.8135  63.8838 0115966 210.7425 208.5623 14.24795434973116"}}, "geometry": {"type": "Point", "coordinates": [68.93613491354812, -27.213884932913114]}}, {"type": "Feature", "properties": {"norad_id": 30454, "name": "FENGYUN 1C DEB", "group": "fengyun-1c-debris", "lat": 47.100910575443116, "lon": 151.1983313131728, "alt_km": 749.2944673046977, "timestamp": "2025-12-18T14:52:08.302191+00:00", "meta": {"OBJECT_NAME": "FENGYUN 1C DEB", "OBJECT_ID": "1999-025AFR", "EPOCH": "2025-12-17T21:24:40.941792", "MEAN_MOTION": 14.1542363, "ECCENTRICITY": 0.01711722, "INCLINATION": 98.1329, "RA_OF_ASC_NODE": 321.6819, "ARG_OF_PERICENTER": 180.0163, "MEAN_ANOMALY": 209.194, "EPHEMERIS_TYPE": 0, "CLASSIFICATION_TYPE": "U", "NORAD_CAT_ID": 30454, "ELEMENT_SET_NO": 999, "REV_AT_EPOCH": 96033, "BSTAR": 0.001266654, "MEAN_MOTION_DOT": 2.811e-05, "MEAN_MOTION_DDOT": 0}, "tle": {"line1": "1 30454U 99025AFR 25351.89214053  .00002811  00000+0  12667-2 0  9994", "line2": "2 30454  98.1329 321.6819 0171172 180.0163 209.1940 14.15423630960333"}}, "geometry": {"type": "Point", "coordinates": [151.1983313131728, 47.100910575443116]}}, {"type": "Feature", "properties": {"norad_id": 30462, "name": "FENGYUN 1C DEB", "group": "fengyun-1c-debris", "lat": 40.96956968863203, "lon": -27.03342268327215, "alt_km": 967.3479674236432, "timestamp": "2025-12-18T14:52:08.302202+00:00", "meta": {"OBJECT_NAME": "FENGYUN 1C DEB", "OBJECT_ID": "1999-025AFZ", "EPOCH": "2025-12-18T06:12:29.648736", "MEAN_MOTION": 14.06269601, "ECCENTRICITY": 0.01389254, "INCLINATION": 98.8168, "RA_OF_ASC_NODE": 340.3606, "ARG_OF_PERICENTER": 234.6095, "MEAN_ANOMALY": 140.8198, "EPHEMERIS_TYPE": 0, "CLASSIFICATION_TYPE": "U", "NORAD_CAT_ID": 30462, "ELEMENT_SET_NO": 999, "REV_AT_EPOCH": 96871, "BSTAR": 0.00029733199, "MEAN_MOTION_DOT": 4.91e-06, "MEAN_MOTION_DDOT": 0}, "tle": {"line1": "1 30462U 99025AFZ 25352.25867649  .00000491  00000+0  29733-3 0  9994", "line2": "2 30462  98.8168 340.3606 0138925 234.6095 140.8198 14.06269601968713"}}, "geometry": {"type": "Point", "coordinates": [-27.03342268327215, 40.96956968863203]}}, {"type": "Feature", "properties": {"norad_id": 30464, "name": "FENGYUN 1C DEB", "group": "fengyun-1c-debris", "lat": 3.4960309437111987, "lon": -136.63379035917083, "alt_km": 827.6864925839027, "timestamp": "2025-12-18T14:52:08.302212+00:00", "meta": {"OBJECT_NAME": "FENGYUN 1C DEB", "OBJECT_ID": "1999-025AGB", "EPOCH": "2025-12-18T02:14:53.505312", "MEAN_MOTION": 14.10247579, "ECCENTRICITY": 0.01084137, "INCLINATION": 98.8364, "RA_OF_ASC_NODE": 42.305, "ARG_OF_PERICENTER": 243.3095, "MEAN_ANOMALY": 145.8845, "EPHEMERIS_TYPE": 0, "CLASSIFICATION_TYPE": "U", "NORAD_CAT_ID": 30464, "ELEMENT_SET_NO": 999, "REV_AT_EPOCH": 97139, "BSTAR": 9.9463752e-05, "MEAN_MOTION_DOT": 1.42e-06, "MEAN_MOTION_DDOT": 0}, "tle": {"line1": "1 30464U 99025AGB 25352.09367483  .00000142  00000+0  99464-4 0  9991", "line2": "2 30464  98.8364  42.3050 0108413 243.3095 145.8845 14.10247579971398"}}, "geometry": {"type": "Point", "coordinates": [-136.63379035917083, 3.4960309437111987]}}, {"type": "Feature", "properties": {"norad_id": 30465, "name": "FENGYUN 1C DEB", "group": "fengyun-1c-debris", "lat": 16.177850275350327, "lon": -96.46038677989968, "alt_km": 789.4870954455791, "timestamp": "2025-12-18T14:52:08.302223+00:00", "meta": {"OBJECT_NAME": "FENGYUN 1C DEB", "OBJECT_ID": "1999-025AGC", "EPOCH": "2025-12-18T06:01:16.182336", "MEAN_MOTION": 14.33930039, "ECCENTRICITY": 0.00164386, "INCLINATION": 98.8298, "RA_OF_ASC_NODE": 80.5788, "ARG_OF_PERICENTER": 13.803, "MEAN_ANOMALY": 47.6264, "EPHEMERIS_TYPE": 0, "CLASSIFICATION_TYPE": "U", "NORAD_CAT_ID": 30465, "ELEMENT_SET_NO": 999, "REV_AT_EPOCH": 97437, "BSTAR": 0.0014844401, "MEAN_MOTION_DOT": 4.101e-05, "MEAN_MOTION_DDOT": 0}, "tle": {"line1": "1 30465U 99025AGC 25352.25088174  .00004101  00000+0  14844-2 0  9993", "line2": "2 30465  98.8298  80.5788 0016438  13.8030  47.6264 14.33930039974371"}}, "geometry": {"type": "Point", "coordinates": [-96.46038677989968, 16.177850275350327]}}, {"type": "Feature", "properties": {"norad_id": 30466, "name": "FENGYUN 1C DEB", "group": "fengyun-1c-debris", "lat": -43.55209730912547, "lon": -155.78443035785224, "alt_km": 889.9079077161596, "timestamp": "2025-12-18T14:52:08.302233+00:00", "meta": {"OBJECT_NAME": "FENGYUN 1C DEB", "OBJECT_ID": "1999-025AGD", "EPOCH": "2025-12-18T02:17:21.505920", "MEAN_MOTION": 14.22559754, "ECCENTRICITY": 0.01162245, "INCLINATION": 98.6549, "RA_OF_ASC_NODE": 32.0266, "ARG_OF_PERICENTER": 8.7699, "MEAN_ANOMALY": 53.3458, "EPHEMERIS_TYPE": 0, "CLASSIFICATION_TYPE": "U", "NORAD_CAT_ID": 30466, "ELEMENT_SET_NO": 999, "REV_AT_EPOCH": 97427, "BSTAR": 0.00093169965, "MEAN_MOTION_DOT": 2.186e-05, "MEAN_MOTION_DDOT": 0}, "tle": {"line1": "1 30466U 99025AGD 25352.09538780  .00002186  00000+0  93170-3 0  9990", "line2": "2 30466  98.6549  32.0266 0116224   8.7699  53.3458 14.22559754974277"}}, "geometry": {"type": "Point", "coordinates": [-155.78443035785224, -43.55209730912547]}}]}